{
  "type": "FeatureCollection",
  "features": [
    {
      "type": "Feature",
      "properties": {
        "norad_id": 66856,
        "name": "STARLINK-36072",
        "group": "last-30-days",
        "lat": 42.330453952803865,
        "lon": 158.29620049483572,
        "alt_km": 377.93687008615143,
        "timestamp": "2025-12-23T14:49:07.966269+00:00",
        "meta_object_name": "STARLINK-36072",
        "meta_object_id": "2025-281J",
        "meta_epoch": "2025-12-23T06:00:00.999648",
        "meta_mean_motion": 15.62914465,
        "meta_eccentricity": 7.65e-05,
        "meta_inclination": 43.0002,
        "meta_ra_of_asc_node": 58.3121,
        "meta_arg_of_pericenter": 277.6424,
        "meta_mean_anomaly": 272.4626,
        "meta_ephemeris_type": 0,
        "meta_classification_type": "U",
        "meta_norad_cat_id": 66856,
        "meta_element_set_no": 999,
        "meta_rev_at_epoch": 308,
        "meta_bstar": -0.023950051,
        "meta_mean_motion_dot": -0.01962372,
        "meta_mean_motion_ddot": 0,
        "tle_line1": "1 66856U 25281J   25357.25001157 -.01962372  00000+0 -23950-1 0  9993",
        "tle_line2": "2 66856  43.0002  58.3121 0000765 277.6424 272.4626 15.62914465  3085"
      },
      "geometry": {
        "type": "Point",
        "coordinates": [
          158.29620049483572,
          42.330453952803865
        ]
      }
    },
    {
      "type": "Feature",
      "properties": {
        "norad_id": 66857,
        "name": "STARLINK-36083",
        "group": "last-30-days",
        "lat": 42.025796473263426,
        "lon": 160.84873399744882,
        "alt_km": 377.94526748841326,
        "timestamp": "2025-12-23T14:49:07.966292+00:00",
        "meta_object_name": "STARLINK-36083",
        "meta_object_id": "2025-281K",
        "meta_epoch": "2025-12-23T06:00:00.999648",
        "meta_mean_motion": 15.62911573,
        "meta_eccentricity": 7.259e-05,
        "meta_inclination": 42.9999,
        "meta_ra_of_asc_node": 58.3074,
        "meta_arg_of_pericenter": 277.1574,
        "meta_mean_anomaly": 274.8658,
        "meta_ephemeris_type": 0,
        "meta_classification_type": "U",
        "meta_norad_cat_id": 66857,
        "meta_element_set_no": 999,
        "meta_rev_at_epoch": 308,
        "meta_bstar": -0.023887052,
        "meta_mean_motion_dot": -0.01957607,
        "meta_mean_motion_ddot": 0,
        "tle_line1": "1 66857U 25281K   25357.25001157 -.01957607  00000+0 -23887-1 0  9998",
        "tle_line2": "2 66857  42.9999  58.3074 0000725 277.1574 274.8658 15.62911573  3081"
      },
      "geometry": {
        "type": "Point",
        "coordinates": [
          160.84873399744882,
          42.025796473263426
        ]
      }
    },
    {
      "type": "Feature",
      "properties": {
        "norad_id": 66858,
        "name": "STARLINK-35118",
        "group": "last-30-days",
        "lat": 41.66545110631791,
        "lon": 163.37438817791264,
        "alt_km": 378.065639715589,
        "timestamp": "2025-12-23T14:49:07.966310+00:00",
        "meta_object_name": "STARLINK-35118",
        "meta_object_id": "2025-281L",
        "meta_epoch": "2025-12-23T06:00:00.999648",
        "meta_mean_motion": 15.62914306,
        "meta_eccentricity": 8.163e-05,
        "meta_inclination": 43.0001,
        "meta_ra_of_asc_node": 58.3024,
        "meta_arg_of_pericenter": 278.5062,
        "meta_mean_anomaly": 275.4326,
        "meta_ephemeris_type": 0,
        "meta_classification_type": "U",
        "meta_norad_cat_id": 66858,
        "meta_element_set_no": 999,
        "meta_rev_at_epoch": 286,
        "meta_bstar": -0.023939909,
        "meta_mean_motion_dot": -0.01961665,
        "meta_mean_motion_ddot": 0,
        "tle_line1": "1 66858U 25281L   25357.25001157 -.01961665  00000+0 -23940-1 0  9998",
        "tle_line2": "2 66858  43.0001  58.3024 0000816 278.5062 275.4326 15.62914306  2862"
      },
      "geometry": {
        "type": "Point",
        "coordinates": [
          163.37438817791264,
          41.66545110631791
        ]
      }
    },
    {
      "type": "Feature",
      "properties": {
        "norad_id": 66859,
        "name": "STARLINK-35646",
        "group": "last-30-days",
        "lat": 41.250215289619405,
        "lon": 165.86908646585934,
        "alt_km": 378.0470260995198,
        "timestamp": "2025-12-23T14:49:07.966326+00:00",
        "meta_object_name": "STARLINK-35646",
        "meta_object_id": "2025-281M",
        "meta_epoch": "2025-12-23T06:00:00.999648",
        "meta_mean_motion": 15.62914956,
        "meta_eccentricity": 7.484e-05,
        "meta_inclination": 43.0001,
        "meta_ra_of_asc_node": 58.2977,
        "meta_arg_of_pericenter": 272.4351,
        "meta_mean_anomaly": 283.4202,
        "meta_ephemeris_type": 0,
        "meta_classification_type": "U",
        "meta_norad_cat_id": 66859,
        "meta_element_set_no": 999,
        "meta_rev_at_epoch": 308,
        "meta_bstar": -0.023929806,
        "meta_mean_motion_dot": -0.01960936,
        "meta_mean_motion_ddot": 0,
        "tle_line1": "1 66859U 25281M   25357.25001157 -.01960936  00000+0 -23930-1 0  9998",
        "tle_line2": "2 66859  43.0001  58.2977 0000748 272.4351 283.4202 15.62914956  3085"
      },
      "geometry": {
        "type": "Point",
        "coordinates": [
          165.86908646585934,
          41.250215289619405
        ]
      }
    },
    {
      "type": "Feature",
      "properties": {
        "norad_id": 66860,
        "name": "STARLINK-35987",
        "group": "last-30-days",
        "lat": 38.406918892374584,
        "lon": 177.79115779935563,
        "alt_km": 378.50796028680816,
        "timestamp": "2025-12-23T14:49:07.966343+00:00",
        "meta_object_name": "STARLINK-35987",
        "meta_object_id": "2025-281N",
        "meta_epoch": "2025-12-23T06:00:00.999648",
        "meta_mean_motion": 15.62907715,
        "meta_eccentricity": 8.296e-05,
        "meta_inclination": 43.0001,
        "meta_ra_of_asc_node": 58.274,
        "meta_arg_of_pericenter": 278.612,
        "meta_mean_anomaly": 286.8274,
        "meta_ephemeris_type": 0,
        "meta_classification_type": "U",
        "meta_norad_cat_id": 66860,
        "meta_element_set_no": 999,
        "meta_rev_at_epoch": 308,
        "meta_bstar": -0.023734137,
        "meta_mean_motion_dot": -0.01946378,
        "meta_mean_motion_ddot": 0,
        "tle_line1": "1 66860U 25281N   25357.25001157 -.01946378  00000+0 -23734-1 0  9996",
        "tle_line2": "2 66860  43.0001  58.2740 0000829 278.6120 286.8274 15.62907715  3088"
      },
      "geometry": {
        "type": "Point",
        "coordinates": [
          177.79115779935563,
          38.406918892374584
        ]
      }
    },
    {
      "type": "Feature",
      "properties": {
        "norad_id": 66861,
        "name": "STARLINK-35991",
        "group": "last-30-days",
        "lat": 40.26066449701717,
        "lon": 170.75813014966894,
        "alt_km": 378.3208633849672,
        "timestamp": "2025-12-23T14:49:07.966360+00:00",
        "meta_object_name": "STARLINK-35991",
        "meta_object_id": "2025-281P",
        "meta_epoch": "2025-12-23T06:00:00.999648",
        "meta_mean_motion": 15.62914712,
        "meta_eccentricity": 8.992e-05,
        "meta_inclination": 43.0001,
        "meta_ra_of_asc_node": 58.2885,
        "meta_arg_of_pericenter": 279.0223,
        "meta_mean_anomaly": 280.6678,
        "meta_ephemeris_type": 0,
        "meta_classification_type": "U",
        "meta_norad_cat_id": 66861,
        "meta_element_set_no": 999,
        "meta_rev_at_epoch": 308,
        "meta_bstar": -0.023943101,
        "meta_mean_motion_dot": -0.01961979,
        "meta_mean_motion_ddot": 0,
        "tle_line1": "1 66861U 25281P   25357.25001157 -.01961979  00000+0 -23943-1 0  9993",
        "tle_line2": "2 66861  43.0001  58.2885 0000899 279.0223 280.6678 15.62914712  3080"
      },
      "geometry": {
        "type": "Point",
        "coordinates": [
          170.75813014966894,
          40.26066449701717
        ]
      }
    },
    {
      "type": "Feature",
      "properties": {
        "norad_id": 66862,
        "name": "STARLINK-35974",
        "group": "last-30-days",
        "lat": 40.781479182364265,
        "lon": 168.3311292130175,
        "alt_km": 378.0805087731196,
        "timestamp": "2025-12-23T14:49:07.966376+00:00",
        "meta_object_name": "STARLINK-35974",
        "meta_object_id": "2025-281Q",
        "meta_epoch": "2025-12-23T06:00:00.999648",
        "meta_mean_motion": 15.62910889,
        "meta_eccentricity": 6.797e-05,
        "meta_inclination": 43.0001,
        "meta_ra_of_asc_node": 58.2931,
        "meta_arg_of_pericenter": 276.8244,
        "meta_mean_anomaly": 280.949,
        "meta_ephemeris_type": 0,
        "meta_classification_type": "U",
        "meta_norad_cat_id": 66862,
        "meta_element_set_no": 999,
        "meta_rev_at_epoch": 297,
        "meta_bstar": -0.023859928,
        "meta_mean_motion_dot": -0.01955574,
        "meta_mean_motion_ddot": 0,
        "tle_line1": "1 66862U 25281Q   25357.25001157 -.01955574  00000+0 -23860-1 0  9996",
        "tle_line2": "2 66862  43.0001  58.2931 0000679 276.8244 280.9490 15.62910889  2970"
      },
      "geometry": {
        "type": "Point",
        "coordinates": [
          168.3311292130175,
          40.781479182364265
        ]
      }
    }
  ]
}